<?xml version="1.0" encoding="UTF-8"?>
<gpx creator="StravaGPX" version="1.1" xmlns="http://www.topografix.com/GPX/1/1" xmlns:xsi="http://www.w3.org/2001/XMLSchema-instance" xsi:schemaLocation="http://www.topografix.com/GPX/1/1 http://www.topografix.com/GPX/1/1/gpx.xsd">
 <metadata>
  <name>Petzen super Verticale</name>
  <author>
   <name>mow osterberger</name>
   <link href="https://www.strava.com/athletes/47625307"/>
  </author>
  <copyright author="OpenStreetMap contributors">
   <year>2020</year>
   <license>https://www.openstreetmap.org/copyright</license>
  </copyright>
  <link href="https://www.strava.com/routes/3534842718971447040"/>
 </metadata>
 <trk>
  <name>Petzen super Verticale</name>
  <link href="https://www.strava.com/routes/3534842718971447040"/>
  <type>trail_running</type>
  <trkseg>
   <trkpt lat="46.54106" lon="14.77499">
    <ele>653.21</ele>
   </trkpt>
   <trkpt lat="46.540600000000005" lon="14.774590000000002">
    <ele>657.58</ele>
   </trkpt>
   <trkpt lat="46.54055" lon="14.774580000000002">
    <ele>657.0600000000001</ele>
   </trkpt>
   <trkpt lat="46.5405" lon="14.774640000000002">
    <ele>657.0600000000001</ele>
   </trkpt>
   <trkpt lat="46.54054000000001" lon="14.774740000000001">
    <ele>658.08</ele>
   </trkpt>
   <trkpt lat="46.54057" lon="14.775">
    <ele>659.8900000000001</ele>
   </trkpt>
   <trkpt lat="46.54046" lon="14.77593">
    <ele>669.1600000000001</ele>
   </trkpt>
   <trkpt lat="46.540420000000005" lon="14.776050000000001">
    <ele>669.63</ele>
   </trkpt>
   <trkpt lat="46.540200000000006" lon="14.776420000000002">
    <ele>670.51</ele>
   </trkpt>
   <trkpt lat="46.53954" lon="14.777270000000001">
    <ele>681.21</ele>
   </trkpt>
   <trkpt lat="46.53914" lon="14.777830000000002">
    <ele>685.86</ele>
   </trkpt>
   <trkpt lat="46.53896" lon="14.778300000000002">
    <ele>688.4800000000001</ele>
   </trkpt>
   <trkpt lat="46.53886000000001" lon="14.778480000000002">
    <ele>689.6800000000001</ele>
   </trkpt>
   <trkpt lat="46.538720000000005" lon="14.778630000000001">
    <ele>690.7700000000001</ele>
   </trkpt>
   <trkpt lat="46.53855" lon="14.77874">
    <ele>693.13</ele>
   </trkpt>
   <trkpt lat="46.538430000000005" lon="14.778770000000002">
    <ele>693.59</ele>
   </trkpt>
   <trkpt lat="46.53817" lon="14.7787">
    <ele>694.5300000000001</ele>
   </trkpt>
   <trkpt lat="46.53781" lon="14.778550000000001">
    <ele>695.46</ele>
   </trkpt>
   <trkpt lat="46.53717" lon="14.77832">
    <ele>699.16</ele>
   </trkpt>
   <trkpt lat="46.53703" lon="14.77837">
    <ele>700.3900000000001</ele>
   </trkpt>
   <trkpt lat="46.537020000000005" lon="14.778380000000002">
    <ele>700.3900000000001</ele>
   </trkpt>
   <trkpt lat="46.53703" lon="14.778360000000001">
    <ele>700.28</ele>
   </trkpt>
   <trkpt lat="46.536680000000004" lon="14.779000000000002">
    <ele>707.28</ele>
   </trkpt>
   <trkpt lat="46.536620000000006" lon="14.779380000000002">
    <ele>710.5300000000001</ele>
   </trkpt>
   <trkpt lat="46.53658" lon="14.78002">
    <ele>715.0500000000001</ele>
   </trkpt>
   <trkpt lat="46.536550000000005" lon="14.780170000000002">
    <ele>716.3000000000001</ele>
   </trkpt>
   <trkpt lat="46.53627" lon="14.780460000000001">
    <ele>717.26</ele>
   </trkpt>
   <trkpt lat="46.53624000000001" lon="14.78063">
    <ele>723.3000000000001</ele>
   </trkpt>
   <trkpt lat="46.53624000000001" lon="14.780840000000001">
    <ele>723.3000000000001</ele>
   </trkpt>
   <trkpt lat="46.53614" lon="14.781410000000001">
    <ele>727.83</ele>
   </trkpt>
   <trkpt lat="46.536190000000005" lon="14.78156">
    <ele>727.83</ele>
   </trkpt>
   <trkpt lat="46.536370000000005" lon="14.781760000000002">
    <ele>731.59</ele>
   </trkpt>
   <trkpt lat="46.536750000000005" lon="14.78184">
    <ele>736.1800000000001</ele>
   </trkpt>
   <trkpt lat="46.53681" lon="14.781880000000001">
    <ele>736.1800000000001</ele>
   </trkpt>
   <trkpt lat="46.53680000000001" lon="14.782010000000001">
    <ele>736.5400000000001</ele>
   </trkpt>
   <trkpt lat="46.536620000000006" lon="14.782020000000001">
    <ele>737.92</ele>
   </trkpt>
   <trkpt lat="46.53647" lon="14.782090000000002">
    <ele>739.5100000000001</ele>
   </trkpt>
   <trkpt lat="46.536190000000005" lon="14.782370000000002">
    <ele>742.62</ele>
   </trkpt>
   <trkpt lat="46.53607" lon="14.78245">
    <ele>744.0000000000001</ele>
   </trkpt>
   <trkpt lat="46.53584" lon="14.78241">
    <ele>747.57</ele>
   </trkpt>
   <trkpt lat="46.535790000000006" lon="14.782430000000002">
    <ele>747.57</ele>
   </trkpt>
   <trkpt lat="46.53539000000001" lon="14.78287">
    <ele>754.0000000000001</ele>
   </trkpt>
   <trkpt lat="46.53537" lon="14.78293">
    <ele>755.2</ele>
   </trkpt>
   <trkpt lat="46.53530000000001" lon="14.783500000000002">
    <ele>758.33</ele>
   </trkpt>
   <trkpt lat="46.53529" lon="14.783890000000001">
    <ele>762.62</ele>
   </trkpt>
   <trkpt lat="46.53519000000001" lon="14.784260000000002">
    <ele>766.0600000000001</ele>
   </trkpt>
   <trkpt lat="46.535160000000005" lon="14.78447">
    <ele>769.58</ele>
   </trkpt>
   <trkpt lat="46.535000000000004" lon="14.78485">
    <ele>773.1300000000001</ele>
   </trkpt>
   <trkpt lat="46.5349" lon="14.78499">
    <ele>774.7700000000001</ele>
   </trkpt>
   <trkpt lat="46.53479" lon="14.78508">
    <ele>776.3100000000001</ele>
   </trkpt>
   <trkpt lat="46.534420000000004" lon="14.785300000000001">
    <ele>781.1800000000001</ele>
   </trkpt>
   <trkpt lat="46.53416000000001" lon="14.78541">
    <ele>784.3000000000001</ele>
   </trkpt>
   <trkpt lat="46.533910000000006" lon="14.78564">
    <ele>788.54</ele>
   </trkpt>
   <trkpt lat="46.533840000000005" lon="14.785840000000002">
    <ele>790.9100000000001</ele>
   </trkpt>
   <trkpt lat="46.53383" lon="14.78626">
    <ele>795.0600000000001</ele>
   </trkpt>
   <trkpt lat="46.53387" lon="14.786620000000001">
    <ele>797.1</ele>
   </trkpt>
   <trkpt lat="46.53387" lon="14.78686">
    <ele>798.1800000000001</ele>
   </trkpt>
   <trkpt lat="46.53378000000001" lon="14.78701">
    <ele>800.54</ele>
   </trkpt>
   <trkpt lat="46.533590000000004" lon="14.78719">
    <ele>804.1400000000001</ele>
   </trkpt>
   <trkpt lat="46.53336" lon="14.787630000000002">
    <ele>807.7500000000001</ele>
   </trkpt>
   <trkpt lat="46.533300000000004" lon="14.787670000000002">
    <ele>807.7500000000001</ele>
   </trkpt>
   <trkpt lat="46.53323" lon="14.787670000000002">
    <ele>810.2300000000001</ele>
   </trkpt>
   <trkpt lat="46.533" lon="14.78757">
    <ele>814.6700000000001</ele>
   </trkpt>
   <trkpt lat="46.532880000000006" lon="14.787550000000001">
    <ele>814.6700000000001</ele>
   </trkpt>
   <trkpt lat="46.53255" lon="14.787560000000001">
    <ele>817.6700000000001</ele>
   </trkpt>
   <trkpt lat="46.532270000000004" lon="14.78752">
    <ele>822.2900000000001</ele>
   </trkpt>
   <trkpt lat="46.532030000000006" lon="14.78743">
    <ele>826.5400000000001</ele>
   </trkpt>
   <trkpt lat="46.53191" lon="14.78743">
    <ele>826.5400000000001</ele>
   </trkpt>
   <trkpt lat="46.53183000000001" lon="14.787510000000001">
    <ele>827.64</ele>
   </trkpt>
   <trkpt lat="46.531690000000005" lon="14.787780000000001">
    <ele>832.46</ele>
   </trkpt>
   <trkpt lat="46.531510000000004" lon="14.787960000000002">
    <ele>833.73</ele>
   </trkpt>
   <trkpt lat="46.53144" lon="14.788070000000001">
    <ele>836.4200000000001</ele>
   </trkpt>
   <trkpt lat="46.531270000000006" lon="14.788670000000002">
    <ele>841.72</ele>
   </trkpt>
   <trkpt lat="46.53105" lon="14.788990000000002">
    <ele>847.08</ele>
   </trkpt>
   <trkpt lat="46.53094" lon="14.789090000000002">
    <ele>847.08</ele>
   </trkpt>
   <trkpt lat="46.530800000000006" lon="14.789130000000002">
    <ele>850.87</ele>
   </trkpt>
   <trkpt lat="46.530710000000006" lon="14.78911">
    <ele>851.52</ele>
   </trkpt>
   <trkpt lat="46.53065" lon="14.789040000000002">
    <ele>852.89</ele>
   </trkpt>
   <trkpt lat="46.530820000000006" lon="14.788640000000001">
    <ele>857.35</ele>
   </trkpt>
   <trkpt lat="46.53083" lon="14.78851">
    <ele>857.8800000000001</ele>
   </trkpt>
   <trkpt lat="46.53081" lon="14.788440000000001">
    <ele>858.45</ele>
   </trkpt>
   <trkpt lat="46.530750000000005" lon="14.788380000000002">
    <ele>859.6600000000001</ele>
   </trkpt>
   <trkpt lat="46.53067" lon="14.788440000000001">
    <ele>859.6600000000001</ele>
   </trkpt>
   <trkpt lat="46.53061" lon="14.7886">
    <ele>864.2800000000001</ele>
   </trkpt>
   <trkpt lat="46.53054" lon="14.788720000000001">
    <ele>864.2800000000001</ele>
   </trkpt>
   <trkpt lat="46.53047" lon="14.78879">
    <ele>864.2800000000001</ele>
   </trkpt>
   <trkpt lat="46.530240000000006" lon="14.788920000000001">
    <ele>866.83</ele>
   </trkpt>
   <trkpt lat="46.52993000000001" lon="14.789270000000002">
    <ele>872.4200000000001</ele>
   </trkpt>
   <trkpt lat="46.52991" lon="14.789360000000002">
    <ele>872.4200000000001</ele>
   </trkpt>
   <trkpt lat="46.52993000000001" lon="14.78949">
    <ele>875.59</ele>
   </trkpt>
   <trkpt lat="46.53" lon="14.789660000000001">
    <ele>875.59</ele>
   </trkpt>
   <trkpt lat="46.53" lon="14.78973">
    <ele>878.0000000000001</ele>
   </trkpt>
   <trkpt lat="46.52996" lon="14.789830000000002">
    <ele>878.0000000000001</ele>
   </trkpt>
   <trkpt lat="46.52982" lon="14.789940000000001">
    <ele>880.2700000000001</ele>
   </trkpt>
   <trkpt lat="46.529740000000004" lon="14.790040000000001">
    <ele>881.5200000000001</ele>
   </trkpt>
   <trkpt lat="46.52962" lon="14.790270000000001">
    <ele>884.09</ele>
   </trkpt>
   <trkpt lat="46.52946" lon="14.790420000000001">
    <ele>887.07</ele>
   </trkpt>
   <trkpt lat="46.529210000000006" lon="14.790500000000002">
    <ele>887.07</ele>
   </trkpt>
   <trkpt lat="46.52884" lon="14.790580000000002">
    <ele>895.7900000000001</ele>
   </trkpt>
   <trkpt lat="46.52837" lon="14.790780000000002">
    <ele>903.12</ele>
   </trkpt>
   <trkpt lat="46.528220000000005" lon="14.790790000000001">
    <ele>904.5000000000001</ele>
   </trkpt>
   <trkpt lat="46.528040000000004" lon="14.79076">
    <ele>908.07</ele>
   </trkpt>
   <trkpt lat="46.52796000000001" lon="14.790770000000002">
    <ele>909.44</ele>
   </trkpt>
   <trkpt lat="46.527840000000005" lon="14.790820000000002">
    <ele>912.09</ele>
   </trkpt>
   <trkpt lat="46.52760000000001" lon="14.791">
    <ele>914.02</ele>
   </trkpt>
   <trkpt lat="46.52731000000001" lon="14.79118">
    <ele>923.1</ele>
   </trkpt>
   <trkpt lat="46.52707" lon="14.791450000000001">
    <ele>923.1</ele>
   </trkpt>
   <trkpt lat="46.52678" lon="14.791690000000001">
    <ele>927.6500000000001</ele>
   </trkpt>
   <trkpt lat="46.526790000000005" lon="14.791670000000002">
    <ele>927.49</ele>
   </trkpt>
   <trkpt lat="46.52676" lon="14.791830000000001">
    <ele>928.2</ele>
   </trkpt>
   <trkpt lat="46.5268" lon="14.79193">
    <ele>931.1600000000001</ele>
   </trkpt>
   <trkpt lat="46.527330000000006" lon="14.792700000000002">
    <ele>940.0200000000001</ele>
   </trkpt>
   <trkpt lat="46.52749000000001" lon="14.792980000000002">
    <ele>943.44</ele>
   </trkpt>
   <trkpt lat="46.52775500168913" lon="14.793584997263762">
    <ele>951.82</ele>
   </trkpt>
   <trkpt lat="46.528020000000005" lon="14.79419">
    <ele>957.76</ele>
   </trkpt>
   <trkpt lat="46.52808" lon="14.794680000000001">
    <ele>960.84</ele>
   </trkpt>
   <trkpt lat="46.52801" lon="14.794880000000001">
    <ele>962.3800000000001</ele>
   </trkpt>
   <trkpt lat="46.527860000000004" lon="14.795110000000001">
    <ele>964.61</ele>
   </trkpt>
   <trkpt lat="46.52778000000001" lon="14.79517">
    <ele>965.7700000000001</ele>
   </trkpt>
   <trkpt lat="46.52761" lon="14.795250000000001">
    <ele>968.82</ele>
   </trkpt>
   <trkpt lat="46.52747" lon="14.795300000000001">
    <ele>968.82</ele>
   </trkpt>
   <trkpt lat="46.52732" lon="14.795330000000002">
    <ele>973.33</ele>
   </trkpt>
   <trkpt lat="46.527100000000004" lon="14.79541">
    <ele>973.33</ele>
   </trkpt>
   <trkpt lat="46.526920000000004" lon="14.795560000000002">
    <ele>978.46</ele>
   </trkpt>
   <trkpt lat="46.52673" lon="14.795770000000001">
    <ele>980.1500000000001</ele>
   </trkpt>
   <trkpt lat="46.52666000000001" lon="14.79578">
    <ele>981.69</ele>
   </trkpt>
   <trkpt lat="46.526630000000004" lon="14.795760000000001">
    <ele>981.99</ele>
   </trkpt>
   <trkpt lat="46.52656" lon="14.79568">
    <ele>984.04</ele>
   </trkpt>
   <trkpt lat="46.52656" lon="14.795510000000002">
    <ele>985.35</ele>
   </trkpt>
   <trkpt lat="46.526740000000004" lon="14.794640000000001">
    <ele>992.35</ele>
   </trkpt>
   <trkpt lat="46.52687" lon="14.794450000000001">
    <ele>994.0300000000001</ele>
   </trkpt>
   <trkpt lat="46.52694" lon="14.794270000000001">
    <ele>994.0300000000001</ele>
   </trkpt>
   <trkpt lat="46.52694" lon="14.79409">
    <ele>996.65</ele>
   </trkpt>
   <trkpt lat="46.52689" lon="14.793870000000002">
    <ele>996.65</ele>
   </trkpt>
   <trkpt lat="46.52673" lon="14.79371">
    <ele>999.5600000000001</ele>
   </trkpt>
   <trkpt lat="46.5264" lon="14.79344">
    <ele>1004.2300000000001</ele>
   </trkpt>
   <trkpt lat="46.525935000257185" lon="14.793134997292029">
    <ele>1007.4500000000002</ele>
   </trkpt>
   <trkpt lat="46.525470000000006" lon="14.79283">
    <ele>1013.97</ele>
   </trkpt>
   <trkpt lat="46.52534000000001" lon="14.792710000000001">
    <ele>1014.82</ele>
   </trkpt>
   <trkpt lat="46.52503" lon="14.792280000000002">
    <ele>1019.6</ele>
   </trkpt>
   <trkpt lat="46.52472" lon="14.79198">
    <ele>1023.1600000000001</ele>
   </trkpt>
   <trkpt lat="46.52467" lon="14.791900000000002">
    <ele>1023.1600000000001</ele>
   </trkpt>
   <trkpt lat="46.52459" lon="14.791310000000001">
    <ele>1028.44</ele>
   </trkpt>
   <trkpt lat="46.52459" lon="14.791100000000002">
    <ele>1030.38</ele>
   </trkpt>
   <trkpt lat="46.52459" lon="14.791060000000002">
    <ele>1030.57</ele>
   </trkpt>
   <trkpt lat="46.524770000000004" lon="14.79015">
    <ele>1035.8200000000002</ele>
   </trkpt>
   <trkpt lat="46.52483" lon="14.79001">
    <ele>1037.8400000000001</ele>
   </trkpt>
   <trkpt lat="46.52496000000001" lon="14.789850000000001">
    <ele>1039.41</ele>
   </trkpt>
   <trkpt lat="46.52539" lon="14.78926">
    <ele>1044.3200000000002</ele>
   </trkpt>
   <trkpt lat="46.52546" lon="14.78912">
    <ele>1044.3200000000002</ele>
   </trkpt>
   <trkpt lat="46.52553" lon="14.788820000000001">
    <ele>1046.66</ele>
   </trkpt>
   <trkpt lat="46.525510000000004" lon="14.78856">
    <ele>1047.8</ele>
   </trkpt>
   <trkpt lat="46.52546" lon="14.78823">
    <ele>1051.88</ele>
   </trkpt>
   <trkpt lat="46.525380000000006" lon="14.78789">
    <ele>1053.14</ele>
   </trkpt>
   <trkpt lat="46.52523" lon="14.78733">
    <ele>1058.87</ele>
   </trkpt>
   <trkpt lat="46.52506" lon="14.787030000000001">
    <ele>1061.8899999999999</ele>
   </trkpt>
   <trkpt lat="46.525040000000004" lon="14.786950000000001">
    <ele>1061.8899999999999</ele>
   </trkpt>
   <trkpt lat="46.525040000000004" lon="14.786830000000002">
    <ele>1063.79</ele>
   </trkpt>
   <trkpt lat="46.525110000000005" lon="14.786640000000002">
    <ele>1067.68</ele>
   </trkpt>
   <trkpt lat="46.525240000000004" lon="14.786450000000002">
    <ele>1067.68</ele>
   </trkpt>
   <trkpt lat="46.525490000000005" lon="14.786000000000001">
    <ele>1074.0500000000002</ele>
   </trkpt>
   <trkpt lat="46.525650000000006" lon="14.785670000000001">
    <ele>1076.88</ele>
   </trkpt>
   <trkpt lat="46.525740000000006" lon="14.785340000000001">
    <ele>1078.3700000000001</ele>
   </trkpt>
   <trkpt lat="46.52581000000001" lon="14.785000000000002">
    <ele>1081.11</ele>
   </trkpt>
   <trkpt lat="46.52586" lon="14.784870000000002">
    <ele>1081.11</ele>
   </trkpt>
   <trkpt lat="46.525960000000005" lon="14.78471">
    <ele>1083.15</ele>
   </trkpt>
   <trkpt lat="46.526390000572206" lon="14.784335003003774">
    <ele>1089.85</ele>
   </trkpt>
   <trkpt lat="46.52682" lon="14.78396">
    <ele>1094.93</ele>
   </trkpt>
   <trkpt lat="46.52691" lon="14.783900000000001">
    <ele>1095.82</ele>
   </trkpt>
   <trkpt lat="46.52704000000001" lon="14.783850000000001">
    <ele>1095.82</ele>
   </trkpt>
   <trkpt lat="46.52727" lon="14.783840000000001">
    <ele>1098.99</ele>
   </trkpt>
   <trkpt lat="46.527370000000005" lon="14.78381">
    <ele>1098.99</ele>
   </trkpt>
   <trkpt lat="46.5275" lon="14.783710000000001">
    <ele>1101.4</ele>
   </trkpt>
   <trkpt lat="46.52756" lon="14.783600000000002">
    <ele>1102.23</ele>
   </trkpt>
   <trkpt lat="46.527730000000005" lon="14.783090000000001">
    <ele>1106.0</ele>
   </trkpt>
   <trkpt lat="46.527800000000006" lon="14.782990000000002">
    <ele>1107.65</ele>
   </trkpt>
   <trkpt lat="46.527930000000005" lon="14.78287">
    <ele>1109.42</ele>
   </trkpt>
   <trkpt lat="46.527950000000004" lon="14.78278">
    <ele>1110.69</ele>
   </trkpt>
   <trkpt lat="46.52794" lon="14.782750000000002">
    <ele>1110.89</ele>
   </trkpt>
   <trkpt lat="46.527910000000006" lon="14.782700000000002">
    <ele>1111.5600000000002</ele>
   </trkpt>
   <trkpt lat="46.52788" lon="14.78269">
    <ele>1111.5600000000002</ele>
   </trkpt>
   <trkpt lat="46.52785" lon="14.782700000000002">
    <ele>1111.96</ele>
   </trkpt>
   <trkpt lat="46.52756" lon="14.78297">
    <ele>1114.56</ele>
   </trkpt>
   <trkpt lat="46.52725" lon="14.78321">
    <ele>1118.15</ele>
   </trkpt>
   <trkpt lat="46.52714" lon="14.78325">
    <ele>1118.15</ele>
   </trkpt>
   <trkpt lat="46.52662" lon="14.783240000000001">
    <ele>1124.2800000000002</ele>
   </trkpt>
   <trkpt lat="46.526050000000005" lon="14.783310000000002">
    <ele>1128.66</ele>
   </trkpt>
   <trkpt lat="46.5257" lon="14.78348">
    <ele>1133.42</ele>
   </trkpt>
   <trkpt lat="46.525400000000005" lon="14.783560000000001">
    <ele>1136.5200000000002</ele>
   </trkpt>
   <trkpt lat="46.5253" lon="14.783610000000001">
    <ele>1139.61</ele>
   </trkpt>
   <trkpt lat="46.52523" lon="14.78368">
    <ele>1139.61</ele>
   </trkpt>
   <trkpt lat="46.52499" lon="14.784070000000002">
    <ele>1143.69</ele>
   </trkpt>
   <trkpt lat="46.524930000000005" lon="14.78409">
    <ele>1144.7900000000002</ele>
   </trkpt>
   <trkpt lat="46.52488" lon="14.784020000000002">
    <ele>1145.2900000000002</ele>
   </trkpt>
   <trkpt lat="46.52488" lon="14.783940000000001">
    <ele>1145.93</ele>
   </trkpt>
   <trkpt lat="46.52488" lon="14.783930000000002">
    <ele>1145.98</ele>
   </trkpt>
   <trkpt lat="46.525090000000006" lon="14.783650000000002">
    <ele>1148.26</ele>
   </trkpt>
   <trkpt lat="46.52514" lon="14.78354">
    <ele>1149.01</ele>
   </trkpt>
   <trkpt lat="46.525200000000005" lon="14.783360000000002">
    <ele>1151.63</ele>
   </trkpt>
   <trkpt lat="46.52526" lon="14.78325">
    <ele>1151.63</ele>
   </trkpt>
   <trkpt lat="46.525560000000006" lon="14.78302">
    <ele>1155.9</ele>
   </trkpt>
   <trkpt lat="46.52566" lon="14.782910000000001">
    <ele>1157.3300000000002</ele>
   </trkpt>
   <trkpt lat="46.525830000000006" lon="14.782660000000002">
    <ele>1158.3700000000001</ele>
   </trkpt>
   <trkpt lat="46.52597" lon="14.782530000000001">
    <ele>1161.6000000000001</ele>
   </trkpt>
   <trkpt lat="46.52624" lon="14.782370000000002">
    <ele>1165.47</ele>
   </trkpt>
   <trkpt lat="46.52651" lon="14.78227">
    <ele>1167.47</ele>
   </trkpt>
   <trkpt lat="46.52667" lon="14.78213">
    <ele>1169.88</ele>
   </trkpt>
   <trkpt lat="46.52673" lon="14.782050000000002">
    <ele>1170.93</ele>
   </trkpt>
   <trkpt lat="46.527010000000004" lon="14.78156">
    <ele>1175.5200000000002</ele>
   </trkpt>
   <trkpt lat="46.527420000000006" lon="14.780930000000001">
    <ele>1185.33</ele>
   </trkpt>
   <trkpt lat="46.527640000000005" lon="14.78034">
    <ele>1188.7800000000002</ele>
   </trkpt>
   <trkpt lat="46.52796000000001" lon="14.77987">
    <ele>1195.3700000000001</ele>
   </trkpt>
   <trkpt lat="46.52799" lon="14.779790000000002">
    <ele>1196.82</ele>
   </trkpt>
   <trkpt lat="46.52798000000001" lon="14.779560000000002">
    <ele>1198.5800000000002</ele>
   </trkpt>
   <trkpt lat="46.527930000000005" lon="14.779200000000001">
    <ele>1199.4900000000002</ele>
   </trkpt>
   <trkpt lat="46.52794" lon="14.778970000000001">
    <ele>1202.8500000000001</ele>
   </trkpt>
   <trkpt lat="46.528000000000006" lon="14.778580000000002">
    <ele>1205.15</ele>
   </trkpt>
   <trkpt lat="46.528150000000004" lon="14.778030000000001">
    <ele>1209.14</ele>
   </trkpt>
   <trkpt lat="46.52816000000001" lon="14.777960000000002">
    <ele>1210.53</ele>
   </trkpt>
   <trkpt lat="46.52814" lon="14.777930000000001">
    <ele>1210.53</ele>
   </trkpt>
   <trkpt lat="46.528130000000004" lon="14.777920000000002">
    <ele>1210.6000000000001</ele>
   </trkpt>
   <trkpt lat="46.528130000000004" lon="14.77791">
    <ele>1210.6000000000001</ele>
   </trkpt>
   <trkpt lat="46.52805" lon="14.7779">
    <ele>1212.3000000000002</ele>
   </trkpt>
   <trkpt lat="46.528020000000005" lon="14.777920000000002">
    <ele>1212.3000000000002</ele>
   </trkpt>
   <trkpt lat="46.52794" lon="14.778310000000001">
    <ele>1214.7</ele>
   </trkpt>
   <trkpt lat="46.527710000000006" lon="14.778810000000002">
    <ele>1219.8600000000001</ele>
   </trkpt>
   <trkpt lat="46.527570000000004" lon="14.77941">
    <ele>1224.8000000000002</ele>
   </trkpt>
   <trkpt lat="46.527480000000004" lon="14.77959">
    <ele>1225.69</ele>
   </trkpt>
   <trkpt lat="46.527170000000005" lon="14.779930000000002">
    <ele>1228.1200000000001</ele>
   </trkpt>
   <trkpt lat="46.52685" lon="14.78035">
    <ele>1235.54</ele>
   </trkpt>
   <trkpt lat="46.52675000000001" lon="14.78043">
    <ele>1237.02</ele>
   </trkpt>
   <trkpt lat="46.526300000000006" lon="14.78067">
    <ele>1241.3100000000002</ele>
   </trkpt>
   <trkpt lat="46.52617" lon="14.780680000000002">
    <ele>1242.82</ele>
   </trkpt>
   <trkpt lat="46.52588" lon="14.780650000000001">
    <ele>1247.8600000000001</ele>
   </trkpt>
   <trkpt lat="46.52552000000001" lon="14.78067">
    <ele>1250.0200000000002</ele>
   </trkpt>
   <trkpt lat="46.52543000000001" lon="14.780690000000002">
    <ele>1252.0500000000002</ele>
   </trkpt>
   <trkpt lat="46.52501" lon="14.78086">
    <ele>1256.17</ele>
   </trkpt>
   <trkpt lat="46.52458" lon="14.78118">
    <ele>1261.6100000000001</ele>
   </trkpt>
   <trkpt lat="46.52443" lon="14.781260000000001">
    <ele>1263.76</ele>
   </trkpt>
   <trkpt lat="46.52429" lon="14.781300000000002">
    <ele>1264.66</ele>
   </trkpt>
   <trkpt lat="46.524170000000005" lon="14.781310000000001">
    <ele>1267.03</ele>
   </trkpt>
   <trkpt lat="46.523970000000006" lon="14.78123">
    <ele>1272.25</ele>
   </trkpt>
   <trkpt lat="46.52376" lon="14.781">
    <ele>1274.22</ele>
   </trkpt>
   <trkpt lat="46.52367" lon="14.780960000000002">
    <ele>1274.22</ele>
   </trkpt>
   <trkpt lat="46.523500000000006" lon="14.780980000000001">
    <ele>1276.41</ele>
   </trkpt>
   <trkpt lat="46.523360000000004" lon="14.78104">
    <ele>1278.43</ele>
   </trkpt>
   <trkpt lat="46.523250000000004" lon="14.7811">
    <ele>1279.39</ele>
   </trkpt>
   <trkpt lat="46.52310000000001" lon="14.781220000000001">
    <ele>1281.5700000000002</ele>
   </trkpt>
   <trkpt lat="46.522980000000004" lon="14.78147">
    <ele>1283.97</ele>
   </trkpt>
   <trkpt lat="46.522890000000004" lon="14.78171">
    <ele>1284.9</ele>
   </trkpt>
   <trkpt lat="46.52264" lon="14.78222">
    <ele>1292.2</ele>
   </trkpt>
   <trkpt lat="46.52244" lon="14.782470000000002">
    <ele>1298.7700000000002</ele>
   </trkpt>
   <trkpt lat="46.522380000000005" lon="14.782510000000002">
    <ele>1298.7700000000002</ele>
   </trkpt>
   <trkpt lat="46.52228" lon="14.782520000000002">
    <ele>1299.2800000000002</ele>
   </trkpt>
   <trkpt lat="46.522330000000004" lon="14.782520000000002">
    <ele>1299.2700000000002</ele>
   </trkpt>
   <trkpt lat="46.52225000000001" lon="14.782510000000002">
    <ele>1299.98</ele>
   </trkpt>
   <trkpt lat="46.52179" lon="14.78222">
    <ele>1315.8400000000001</ele>
   </trkpt>
   <trkpt lat="46.521640000000005" lon="14.782180000000002">
    <ele>1320.17</ele>
   </trkpt>
   <trkpt lat="46.52154" lon="14.782210000000001">
    <ele>1320.17</ele>
   </trkpt>
   <trkpt lat="46.52143" lon="14.782200000000001">
    <ele>1323.7</ele>
   </trkpt>
   <trkpt lat="46.52138" lon="14.782190000000002">
    <ele>1324.2800000000002</ele>
   </trkpt>
   <trkpt lat="46.52136" lon="14.78217">
    <ele>1324.8300000000002</ele>
   </trkpt>
   <trkpt lat="46.521350000000005" lon="14.782090000000002">
    <ele>1325.3799999999999</ele>
   </trkpt>
   <trkpt lat="46.52136" lon="14.78217">
    <ele>1324.8300000000002</ele>
   </trkpt>
   <trkpt lat="46.52140000000001" lon="14.782010000000001">
    <ele>1326.27</ele>
   </trkpt>
   <trkpt lat="46.521440000000005" lon="14.78199">
    <ele>1326.6100000000001</ele>
   </trkpt>
   <trkpt lat="46.52156" lon="14.78199">
    <ele>1327.42</ele>
   </trkpt>
   <trkpt lat="46.52169000000001" lon="14.78194">
    <ele>1328.2500000000002</ele>
   </trkpt>
   <trkpt lat="46.52181" lon="14.781830000000001">
    <ele>1328.8700000000001</ele>
   </trkpt>
   <trkpt lat="46.52197" lon="14.78165">
    <ele>1332.96</ele>
   </trkpt>
   <trkpt lat="46.52208" lon="14.781490000000002">
    <ele>1333.9500000000003</ele>
   </trkpt>
   <trkpt lat="46.52217" lon="14.78133">
    <ele>1335.64</ele>
   </trkpt>
   <trkpt lat="46.5223" lon="14.780980000000001">
    <ele>1339.3700000000001</ele>
   </trkpt>
   <trkpt lat="46.52244" lon="14.780650000000001">
    <ele>1344.74</ele>
   </trkpt>
   <trkpt lat="46.522470000000006" lon="14.78049">
    <ele>1345.5700000000002</ele>
   </trkpt>
   <trkpt lat="46.522490000000005" lon="14.780270000000002">
    <ele>1347.7</ele>
   </trkpt>
   <trkpt lat="46.52253" lon="14.780170000000002">
    <ele>1348.4600000000003</ele>
   </trkpt>
   <trkpt lat="46.52259" lon="14.78011">
    <ele>1348.8200000000002</ele>
   </trkpt>
   <trkpt lat="46.52268" lon="14.780070000000002">
    <ele>1349.4700000000003</ele>
   </trkpt>
   <trkpt lat="46.522870000000005" lon="14.780030000000002">
    <ele>1352.44</ele>
   </trkpt>
   <trkpt lat="46.522920000000006" lon="14.780000000000001">
    <ele>1352.68</ele>
   </trkpt>
   <trkpt lat="46.522960000000005" lon="14.779950000000001">
    <ele>1352.5900000000001</ele>
   </trkpt>
   <trkpt lat="46.523210000000006" lon="14.77936">
    <ele>1359.7</ele>
   </trkpt>
   <trkpt lat="46.523300000000006" lon="14.77926">
    <ele>1361.1100000000001</ele>
   </trkpt>
   <trkpt lat="46.5234" lon="14.77921">
    <ele>1362.1200000000001</ele>
   </trkpt>
   <trkpt lat="46.52346000000001" lon="14.77921">
    <ele>1362.19</ele>
   </trkpt>
   <trkpt lat="46.523540000000004" lon="14.779240000000001">
    <ele>1361.42</ele>
   </trkpt>
   <trkpt lat="46.523920000000004" lon="14.77941">
    <ele>1367.18</ele>
   </trkpt>
   <trkpt lat="46.52402000000001" lon="14.77945">
    <ele>1370.42</ele>
   </trkpt>
   <trkpt lat="46.52407" lon="14.779440000000001">
    <ele>1370.69</ele>
   </trkpt>
   <trkpt lat="46.52411" lon="14.7794">
    <ele>1371.14</ele>
   </trkpt>
   <trkpt lat="46.524210000000004" lon="14.779180000000002">
    <ele>1372.06</ele>
   </trkpt>
   <trkpt lat="46.52438" lon="14.778910000000002">
    <ele>1375.2700000000002</ele>
   </trkpt>
   <trkpt lat="46.52478000000001" lon="14.77866">
    <ele>1382.22</ele>
   </trkpt>
   <trkpt lat="46.524840000000005" lon="14.7786">
    <ele>1382.5900000000001</ele>
   </trkpt>
   <trkpt lat="46.52514" lon="14.778250000000002">
    <ele>1387.0600000000002</ele>
   </trkpt>
   <trkpt lat="46.525240000000004" lon="14.77818">
    <ele>1388.91</ele>
   </trkpt>
   <trkpt lat="46.525330000000004" lon="14.778120000000001">
    <ele>1388.91</ele>
   </trkpt>
   <trkpt lat="46.52543000000001" lon="14.778110000000002">
    <ele>1390.19</ele>
   </trkpt>
   <trkpt lat="46.525560000000006" lon="14.77805">
    <ele>1391.5400000000002</ele>
   </trkpt>
   <trkpt lat="46.52561" lon="14.77799">
    <ele>1391.75</ele>
   </trkpt>
   <trkpt lat="46.52568" lon="14.777830000000002">
    <ele>1392.5200000000002</ele>
   </trkpt>
   <trkpt lat="46.52577" lon="14.777450000000002">
    <ele>1396.5100000000002</ele>
   </trkpt>
   <trkpt lat="46.52582" lon="14.777180000000001">
    <ele>1399.8400000000001</ele>
   </trkpt>
   <trkpt lat="46.526050000000005" lon="14.77673">
    <ele>1406.44</ele>
   </trkpt>
   <trkpt lat="46.52606" lon="14.776650000000002">
    <ele>1407.0900000000001</ele>
   </trkpt>
   <trkpt lat="46.52606" lon="14.776570000000001">
    <ele>1407.0900000000001</ele>
   </trkpt>
   <trkpt lat="46.52602" lon="14.776530000000001">
    <ele>1407.65</ele>
   </trkpt>
   <trkpt lat="46.525920000000006" lon="14.77654">
    <ele>1408.2</ele>
   </trkpt>
   <trkpt lat="46.52584" lon="14.776570000000001">
    <ele>1408.2100000000003</ele>
   </trkpt>
   <trkpt lat="46.525740000000006" lon="14.776660000000001">
    <ele>1409.17</ele>
   </trkpt>
   <trkpt lat="46.525650000000006" lon="14.776710000000001">
    <ele>1410.2100000000003</ele>
   </trkpt>
   <trkpt lat="46.52548" lon="14.776760000000001">
    <ele>1411.3500000000001</ele>
   </trkpt>
   <trkpt lat="46.525240000000004" lon="14.77673">
    <ele>1414.9600000000003</ele>
   </trkpt>
   <trkpt lat="46.52488" lon="14.776560000000002">
    <ele>1421.65</ele>
   </trkpt>
   <trkpt lat="46.524750000000004" lon="14.776380000000001">
    <ele>1424.46</ele>
   </trkpt>
   <trkpt lat="46.52472" lon="14.776250000000001">
    <ele>1424.46</ele>
   </trkpt>
   <trkpt lat="46.52467" lon="14.776200000000001">
    <ele>1426.92</ele>
   </trkpt>
   <trkpt lat="46.524620000000006" lon="14.776200000000001">
    <ele>1426.92</ele>
   </trkpt>
   <trkpt lat="46.52458" lon="14.776230000000002">
    <ele>1426.92</ele>
   </trkpt>
   <trkpt lat="46.524570000000004" lon="14.776290000000001">
    <ele>1426.39</ele>
   </trkpt>
   <trkpt lat="46.52458" lon="14.776370000000002">
    <ele>1426.08</ele>
   </trkpt>
   <trkpt lat="46.52496000000001" lon="14.777040000000001">
    <ele>1431.48</ele>
   </trkpt>
   <trkpt lat="46.52501" lon="14.777180000000001">
    <ele>1433.07</ele>
   </trkpt>
   <trkpt lat="46.52499" lon="14.77734">
    <ele>1434.7800000000002</ele>
   </trkpt>
   <trkpt lat="46.52476" lon="14.77752">
    <ele>1437.51</ele>
   </trkpt>
   <trkpt lat="46.52458" lon="14.77762">
    <ele>1440.39</ele>
   </trkpt>
   <trkpt lat="46.52445" lon="14.777660000000001">
    <ele>1441.9400000000003</ele>
   </trkpt>
   <trkpt lat="46.524010000000004" lon="14.77767">
    <ele>1444.5800000000002</ele>
   </trkpt>
   <trkpt lat="46.52364" lon="14.777490000000002">
    <ele>1449.5200000000002</ele>
   </trkpt>
   <trkpt lat="46.523450000000004" lon="14.777460000000001">
    <ele>1452.2400000000002</ele>
   </trkpt>
   <trkpt lat="46.523450000000004" lon="14.777420000000001">
    <ele>1452.52</ele>
   </trkpt>
   <trkpt lat="46.52347" lon="14.777320000000001">
    <ele>1453.48</ele>
   </trkpt>
   <trkpt lat="46.523500000000006" lon="14.77729">
    <ele>1453.98</ele>
   </trkpt>
   <trkpt lat="46.52358" lon="14.777280000000001">
    <ele>1454.76</ele>
   </trkpt>
   <trkpt lat="46.523720000000004" lon="14.777230000000001">
    <ele>1455.7300000000002</ele>
   </trkpt>
   <trkpt lat="46.52378" lon="14.77715">
    <ele>1458.1000000000001</ele>
   </trkpt>
   <trkpt lat="46.5238" lon="14.77706">
    <ele>1459.14</ele>
   </trkpt>
   <trkpt lat="46.523790000000005" lon="14.77691">
    <ele>1460.0900000000001</ele>
   </trkpt>
   <trkpt lat="46.523740000000004" lon="14.77677">
    <ele>1460.8700000000001</ele>
   </trkpt>
   <trkpt lat="46.52356" lon="14.7764">
    <ele>1463.67</ele>
   </trkpt>
   <trkpt lat="46.52342" lon="14.776040000000002">
    <ele>1468.73</ele>
   </trkpt>
   <trkpt lat="46.523320000000005" lon="14.775730000000001">
    <ele>1471.1100000000001</ele>
   </trkpt>
   <trkpt lat="46.52335" lon="14.775500000000001">
    <ele>1472.25</ele>
   </trkpt>
   <trkpt lat="46.5234" lon="14.77542">
    <ele>1473.77</ele>
   </trkpt>
   <trkpt lat="46.52357000000001" lon="14.775250000000002">
    <ele>1475.14</ele>
   </trkpt>
   <trkpt lat="46.52365" lon="14.775110000000002">
    <ele>1477.1100000000001</ele>
   </trkpt>
   <trkpt lat="46.523770000000006" lon="14.774700000000001">
    <ele>1481.0500000000002</ele>
   </trkpt>
   <trkpt lat="46.523770000000006" lon="14.77462">
    <ele>1481.69</ele>
   </trkpt>
   <trkpt lat="46.52375000000001" lon="14.774550000000001">
    <ele>1481.69</ele>
   </trkpt>
   <trkpt lat="46.523720000000004" lon="14.77453">
    <ele>1483.0400000000002</ele>
   </trkpt>
   <trkpt lat="46.52367" lon="14.774540000000002">
    <ele>1484.05</ele>
   </trkpt>
   <trkpt lat="46.523630000000004" lon="14.774590000000002">
    <ele>1484.05</ele>
   </trkpt>
   <trkpt lat="46.52353" lon="14.77485">
    <ele>1485.65</ele>
   </trkpt>
   <trkpt lat="46.52342" lon="14.77499">
    <ele>1487.3500000000001</ele>
   </trkpt>
   <trkpt lat="46.523210000000006" lon="14.774980000000001">
    <ele>1489.47</ele>
   </trkpt>
   <trkpt lat="46.523070000000004" lon="14.77495">
    <ele>1489.47</ele>
   </trkpt>
   <trkpt lat="46.52295" lon="14.774960000000002">
    <ele>1491.8200000000002</ele>
   </trkpt>
   <trkpt lat="46.522890000000004" lon="14.775010000000002">
    <ele>1492.3300000000002</ele>
   </trkpt>
   <trkpt lat="46.522830000000006" lon="14.775190000000002">
    <ele>1495.15</ele>
   </trkpt>
   <trkpt lat="46.522760000000005" lon="14.775780000000001">
    <ele>1497.9900000000002</ele>
   </trkpt>
   <trkpt lat="46.52268" lon="14.775940000000002">
    <ele>1500.3200000000002</ele>
   </trkpt>
   <trkpt lat="46.522560000000006" lon="14.776100000000001">
    <ele>1501.5600000000002</ele>
   </trkpt>
   <trkpt lat="46.52239" lon="14.776270000000002">
    <ele>1503.2800000000002</ele>
   </trkpt>
   <trkpt lat="46.52195500040711" lon="14.776575002440767">
    <ele>1508.28</ele>
   </trkpt>
   <trkpt lat="46.52152" lon="14.776880000000002">
    <ele>1514.5600000000002</ele>
   </trkpt>
   <trkpt lat="46.52143" lon="14.77691">
    <ele>1515.16</ele>
   </trkpt>
   <trkpt lat="46.521170000000005" lon="14.776940000000002">
    <ele>1520.58</ele>
   </trkpt>
   <trkpt lat="46.52113000000001" lon="14.77696">
    <ele>1520.58</ele>
   </trkpt>
   <trkpt lat="46.52105" lon="14.777030000000002">
    <ele>1520.58</ele>
   </trkpt>
   <trkpt lat="46.52089" lon="14.77725">
    <ele>1523.5200000000002</ele>
   </trkpt>
   <trkpt lat="46.52082" lon="14.777280000000001">
    <ele>1523.5200000000002</ele>
   </trkpt>
   <trkpt lat="46.52058" lon="14.77734">
    <ele>1525.13</ele>
   </trkpt>
   <trkpt lat="46.52024" lon="14.777370000000001">
    <ele>1529.66</ele>
   </trkpt>
   <trkpt lat="46.51990000000001" lon="14.7773">
    <ele>1535.43</ele>
   </trkpt>
   <trkpt lat="46.519940000000005" lon="14.777210000000002">
    <ele>1536.5600000000002</ele>
   </trkpt>
   <trkpt lat="46.52" lon="14.777160000000002">
    <ele>1537.03</ele>
   </trkpt>
   <trkpt lat="46.520010000000006" lon="14.777120000000002">
    <ele>1537.41</ele>
   </trkpt>
   <trkpt lat="46.52" lon="14.777070000000002">
    <ele>1537.7</ele>
   </trkpt>
   <trkpt lat="46.51964" lon="14.777080000000002">
    <ele>1541.17</ele>
   </trkpt>
   <trkpt lat="46.51963000000001" lon="14.777080000000002">
    <ele>1541.2</ele>
   </trkpt>
   <trkpt lat="46.51975" lon="14.77696">
    <ele>1541.95</ele>
   </trkpt>
   <trkpt lat="46.51988" lon="14.77687">
    <ele>1543.32</ele>
   </trkpt>
   <trkpt lat="46.52013" lon="14.77677">
    <ele>1544.63</ele>
   </trkpt>
   <trkpt lat="46.520210000000006" lon="14.776720000000001">
    <ele>1547.5100000000002</ele>
   </trkpt>
   <trkpt lat="46.52029" lon="14.77664">
    <ele>1547.5100000000002</ele>
   </trkpt>
   <trkpt lat="46.52046000000001" lon="14.77631">
    <ele>1550.73</ele>
   </trkpt>
   <trkpt lat="46.52074" lon="14.776060000000001">
    <ele>1556.31</ele>
   </trkpt>
   <trkpt lat="46.520860000000006" lon="14.775900000000002">
    <ele>1556.31</ele>
   </trkpt>
   <trkpt lat="46.520970000000005" lon="14.775590000000001">
    <ele>1560.8300000000002</ele>
   </trkpt>
   <trkpt lat="46.52105" lon="14.775170000000001">
    <ele>1561.92</ele>
   </trkpt>
   <trkpt lat="46.521040000000006" lon="14.7749">
    <ele>1566.19</ele>
   </trkpt>
   <trkpt lat="46.520990000000005" lon="14.774870000000002">
    <ele>1566.19</ele>
   </trkpt>
   <trkpt lat="46.52094" lon="14.774870000000002">
    <ele>1566.69</ele>
   </trkpt>
   <trkpt lat="46.52091" lon="14.7749">
    <ele>1566.69</ele>
   </trkpt>
   <trkpt lat="46.52082" lon="14.77518">
    <ele>1569.64</ele>
   </trkpt>
   <trkpt lat="46.520720000000004" lon="14.77537">
    <ele>1570.04</ele>
   </trkpt>
   <trkpt lat="46.52049" lon="14.775620000000002">
    <ele>1573.5800000000002</ele>
   </trkpt>
   <trkpt lat="46.52035" lon="14.775670000000002">
    <ele>1574.9400000000003</ele>
   </trkpt>
   <trkpt lat="46.520070000000004" lon="14.775620000000002">
    <ele>1578.0</ele>
   </trkpt>
   <trkpt lat="46.520030000000006" lon="14.775630000000001">
    <ele>1578.0</ele>
   </trkpt>
   <trkpt lat="46.51997" lon="14.77565">
    <ele>1578.0</ele>
   </trkpt>
   <trkpt lat="46.51972000000001" lon="14.77588">
    <ele>1584.7000000000003</ele>
   </trkpt>
   <trkpt lat="46.519540000000006" lon="14.775990000000002">
    <ele>1584.7000000000003</ele>
   </trkpt>
   <trkpt lat="46.51935" lon="14.776050000000001">
    <ele>1587.6100000000001</ele>
   </trkpt>
   <trkpt lat="46.519020000000005" lon="14.77607">
    <ele>1593.73</ele>
   </trkpt>
   <trkpt lat="46.51885" lon="14.776110000000001">
    <ele>1593.73</ele>
   </trkpt>
   <trkpt lat="46.51874" lon="14.776200000000001">
    <ele>1596.44</ele>
   </trkpt>
   <trkpt lat="46.518570000000004" lon="14.776420000000002">
    <ele>1599.22</ele>
   </trkpt>
   <trkpt lat="46.51836" lon="14.776650000000002">
    <ele>1602.44</ele>
   </trkpt>
   <trkpt lat="46.518060000000006" lon="14.77677">
    <ele>1606.1900000000003</ele>
   </trkpt>
   <trkpt lat="46.51791" lon="14.776880000000002">
    <ele>1607.3600000000001</ele>
   </trkpt>
   <trkpt lat="46.51785" lon="14.776840000000002">
    <ele>1608.67</ele>
   </trkpt>
   <trkpt lat="46.51785" lon="14.776800000000001">
    <ele>1608.94</ele>
   </trkpt>
   <trkpt lat="46.51785" lon="14.776740000000002">
    <ele>1609.7100000000003</ele>
   </trkpt>
   <trkpt lat="46.517880000000005" lon="14.77669">
    <ele>1609.7100000000003</ele>
   </trkpt>
   <trkpt lat="46.518170000000005" lon="14.776420000000002">
    <ele>1612.5600000000002</ele>
   </trkpt>
   <trkpt lat="46.51829" lon="14.776240000000001">
    <ele>1614.0200000000002</ele>
   </trkpt>
   <trkpt lat="46.51849000000001" lon="14.775640000000001">
    <ele>1619.76</ele>
   </trkpt>
   <trkpt lat="46.51885" lon="14.77508">
    <ele>1624.75</ele>
   </trkpt>
   <trkpt lat="46.51894" lon="14.774730000000002">
    <ele>1626.03</ele>
   </trkpt>
   <trkpt lat="46.51894" lon="14.774630000000002">
    <ele>1626.8500000000001</ele>
   </trkpt>
   <trkpt lat="46.51894" lon="14.774610000000001">
    <ele>1626.8500000000001</ele>
   </trkpt>
   <trkpt lat="46.5189" lon="14.774580000000002">
    <ele>1626.8500000000001</ele>
   </trkpt>
   <trkpt lat="46.518860000000004" lon="14.774580000000002">
    <ele>1628.4600000000003</ele>
   </trkpt>
   <trkpt lat="46.518820000000005" lon="14.77462">
    <ele>1628.4600000000003</ele>
   </trkpt>
   <trkpt lat="46.51872" lon="14.774890000000001">
    <ele>1630.74</ele>
   </trkpt>
   <trkpt lat="46.51863" lon="14.775">
    <ele>1630.74</ele>
   </trkpt>
   <trkpt lat="46.518530000000005" lon="14.77508">
    <ele>1632.5500000000002</ele>
   </trkpt>
   <trkpt lat="46.51840000000001" lon="14.77514">
    <ele>1634.15</ele>
   </trkpt>
   <trkpt lat="46.518260000000005" lon="14.775170000000001">
    <ele>1634.15</ele>
   </trkpt>
   <trkpt lat="46.51814" lon="14.775150000000002">
    <ele>1635.75</ele>
   </trkpt>
   <trkpt lat="46.518190000000004" lon="14.774840000000001">
    <ele>1647.8600000000001</ele>
   </trkpt>
   <trkpt lat="46.51816" lon="14.774840000000001">
    <ele>1647.8600000000001</ele>
   </trkpt>
   <trkpt lat="46.517970000000005" lon="14.77467">
    <ele>1652.4</ele>
   </trkpt>
   <trkpt lat="46.51805" lon="14.774500000000002">
    <ele>1655.14</ele>
   </trkpt>
   <trkpt lat="46.51805" lon="14.774350000000002">
    <ele>1656.3400000000001</ele>
   </trkpt>
   <trkpt lat="46.518100000000004" lon="14.774230000000001">
    <ele>1657.94</ele>
   </trkpt>
   <trkpt lat="46.518170000000005" lon="14.774140000000001">
    <ele>1658.89</ele>
   </trkpt>
   <trkpt lat="46.51821" lon="14.774020000000002">
    <ele>1661.3500000000001</ele>
   </trkpt>
   <trkpt lat="46.518190000000004" lon="14.773890000000002">
    <ele>1661.3500000000001</ele>
   </trkpt>
   <trkpt lat="46.518280000000004" lon="14.773650000000002">
    <ele>1667.6200000000001</ele>
   </trkpt>
   <trkpt lat="46.51838" lon="14.773570000000001">
    <ele>1667.31</ele>
   </trkpt>
   <trkpt lat="46.518510000000006" lon="14.773180000000002">
    <ele>1673.76</ele>
   </trkpt>
   <trkpt lat="46.51859" lon="14.773100000000001">
    <ele>1673.78</ele>
   </trkpt>
   <trkpt lat="46.518640000000005" lon="14.772990000000002">
    <ele>1673.07</ele>
   </trkpt>
   <trkpt lat="46.51863" lon="14.772850000000002">
    <ele>1673.5300000000002</ele>
   </trkpt>
   <trkpt lat="46.518550000000005" lon="14.772590000000001">
    <ele>1677.51</ele>
   </trkpt>
   <trkpt lat="46.518620000000006" lon="14.772380000000002">
    <ele>1683.89</ele>
   </trkpt>
   <trkpt lat="46.518330000000006" lon="14.772150000000002">
    <ele>1695.66</ele>
   </trkpt>
   <trkpt lat="46.518330000000006" lon="14.77222">
    <ele>1684.22</ele>
   </trkpt>
   <trkpt lat="46.518460000000005" lon="14.771700000000001">
    <ele>1688.8500000000001</ele>
   </trkpt>
   <trkpt lat="46.5185" lon="14.77142">
    <ele>1690.76</ele>
   </trkpt>
   <trkpt lat="46.51861" lon="14.771250000000002">
    <ele>1692.43</ele>
   </trkpt>
   <trkpt lat="46.51861" lon="14.77114">
    <ele>1693.2</ele>
   </trkpt>
   <trkpt lat="46.51858000000001" lon="14.7711">
    <ele>1692.89</ele>
   </trkpt>
   <trkpt lat="46.518530000000005" lon="14.771070000000002">
    <ele>1693.39</ele>
   </trkpt>
   <trkpt lat="46.518480000000004" lon="14.771070000000002">
    <ele>1694.2100000000003</ele>
   </trkpt>
   <trkpt lat="46.518530000000005" lon="14.771070000000002">
    <ele>1693.65</ele>
   </trkpt>
   <trkpt lat="46.51845" lon="14.771070000000002">
    <ele>1694.6200000000001</ele>
   </trkpt>
   <trkpt lat="46.51802000000001" lon="14.771350000000002">
    <ele>1706.5</ele>
   </trkpt>
   <trkpt lat="46.51782" lon="14.771560000000001">
    <ele>1710.0000000000002</ele>
   </trkpt>
   <trkpt lat="46.517770000000006" lon="14.771640000000001">
    <ele>1710.69</ele>
   </trkpt>
   <trkpt lat="46.51782" lon="14.771560000000001">
    <ele>1710.0000000000002</ele>
   </trkpt>
   <trkpt lat="46.51802000000001" lon="14.771350000000002">
    <ele>1706.5</ele>
   </trkpt>
  </trkseg>
 </trk>
</gpx>
